#
# this file is automatically produced by convkeps.pl
#
# Last update: Thu Dec 13 15:02:36 2001
#

package Sun;

%keps = (
  'SAUDISAT-1B' => {
    orbit => '6427',
    elset => '331',
    argperigee => '312.8153',
    epoch => '1340.34540793',
    bstar => '0.00067944',
    number => '57',
    raan => '301.6962',
    mm1 => '4.61e-05',
    meanmotion => '14.75538783',
    mm2 => '0',
    id => '26549',
    meananomaly => '46.8545',
    eccentricity => '0.0052929',
    inclination => '64.5519'
  },
  'SO-33' => {
    orbit => '16258',
    elset => '458',
    argperigee => '73.5752',
    epoch => '1340.71321591',
    bstar => '0.0003126',
    number => '98061',
    raan => '109.5296',
    mm1 => '1.579e-05',
    meanmotion => '14.26126721',
    mm2 => '0',
    id => '25509',
    meananomaly => '290.4419',
    eccentricity => '0.0362087',
    inclination => '31.4272'
  },
  'SO-35' => {
    elset => '281',
    orbit => '9604',
    epoch => '356.30570266',
    argperigee => '310.331',
    bstar => '0.00020263',
    number => '99008',
    raan => '155.0303',
    meanmotion => '14.41615958',
    mm1 => '7.23e-06',
    mm2 => '0',
    id => '25636',
    meananomaly => '48.4786',
    eccentricity => '0.0151034',
    inclination => '96.4508'
  },
  'RS-10/11' => {
    orbit => '72419',
    elset => '14',
    argperigee => '13.168',
    epoch => '1339.89901183',
    bstar => '0.00015402',
    number => '87054',
    raan => '111.7069',
    mm1 => '1.56e-06',
    meanmotion => '13.7260793',
    mm2 => '0',
    id => '18129',
    meananomaly => '346.9808',
    eccentricity => '0.0012859',
    inclination => '82.9222'
  },
  'AO-21' => {
    orbit => '54460',
    elset => '149',
    argperigee => '36.0381',
    epoch => '1340.87549553',
    bstar => '0.00015256',
    number => '91006',
    raan => '282.2521',
    mm1 => '1.61e-06',
    meanmotion => '13.74825162',
    mm2 => '0',
    id => '21087',
    meananomaly => '324.3228',
    eccentricity => '0.0036312',
    inclination => '82.941'
  },
  'TO-31' => {
    orbit => '17697',
    elset => '613',
    argperigee => '356.1752',
    epoch => '1339.84158331',
    bstar => '0',
    number => '98043',
    raan => '54.5327',
    mm1 => '-4.4e-07',
    meanmotion => '14.231758',
    mm2 => '0',
    id => '25396',
    meananomaly => '3.9412',
    eccentricity => '0.0002107',
    inclination => '98.6719'
  },
  'GO-32' => {
    orbit => '17683',
    elset => '412',
    argperigee => '22.0323',
    epoch => '1338.92897019',
    bstar => '0.00014849',
    number => '98043',
    raan => '53.0185',
    mm1 => '2.89e-06',
    meanmotion => '14.22708204',
    mm2 => '0',
    id => '25397',
    meananomaly => '338.0919',
    eccentricity => '0.0001479',
    inclination => '98.6695'
  },
  'UO-11' => {
    orbit => '95149',
    elset => '686',
    argperigee => '171.4677',
    epoch => '1340.91846271',
    bstar => '0.00071265',
    number => '84021',
    raan => '303.8855',
    mm1 => '4.77e-05',
    meanmotion => '14.75200964',
    mm2 => '0',
    id => '14781',
    meananomaly => '188.6706',
    eccentricity => '0.0010032',
    inclination => '98.0572'
  },
  'AO-40' => {
    orbit => '506',
    elset => '177',
    argperigee => '357.6245',
    epoch => '1340.01516426',
    bstar => '0.0001',
    number => '72',
    raan => '140.0806',
    mm1 => '0',
    meanmotion => '1.25594343',
    mm2 => '0',
    id => '26609',
    meananomaly => '359.9624',
    eccentricity => '0.7950567',
    inclination => '6.5626'
  },
  'MET-3/5' => {
    orbit => '49556',
    elset => '390',
    argperigee => '215.6391',
    epoch => '1339.56717222',
    bstar => '0.0001',
    number => '91056',
    raan => '349.6954',
    mm1 => '5.1e-07',
    meanmotion => '13.16946694',
    mm2 => '0',
    id => '21655',
    meananomaly => '144.3879',
    eccentricity => '0.0012768',
    inclination => '82.5558'
  },
  'UO-14' => {
    orbit => '61958',
    elset => '839',
    argperigee => '66.5805',
    epoch => '1339.7237766',
    bstar => '0.00021826',
    number => '90005',
    raan => '32.8558',
    mm1 => '5.32e-06',
    meanmotion => '14.30883081',
    mm2 => '0',
    id => '20437',
    meananomaly => '293.6618',
    eccentricity => '0.0011803',
    inclination => '98.3366'
  },
  'NOAA-10' => {
    orbit => '79135',
    elset => '133',
    argperigee => '286.8456',
    epoch => '1340.93349425',
    bstar => '0.00039976',
    number => '86073',
    raan => '326.9048',
    mm1 => '9.21e-06',
    meanmotion => '14.26579965',
    mm2 => '0',
    id => '16969',
    meananomaly => '73.1449',
    eccentricity => '0.0011679',
    inclination => '98.6928'
  },
  FENGYUN1 => {
    orbit => '13265',
    elset => '423',
    argperigee => '170.7304',
    epoch => '1340.13134563',
    bstar => '0.00020482',
    number => '99025',
    raan => '10.4947',
    mm1 => '3.22e-06',
    meanmotion => '14.10426439',
    mm2 => '0',
    id => '25730',
    meananomaly => '189.4125',
    eccentricity => '0.0014166',
    inclination => '98.6745'
  },
  'NOAA-11' => {
    orbit => '68079',
    elset => '962',
    argperigee => '9.8759',
    epoch => '1340.91026523',
    bstar => '0.00031934',
    number => '88089',
    raan => '52.8713',
    mm1 => '5.63e-06',
    meanmotion => '14.14124306',
    mm2 => '0',
    id => '19531',
    meananomaly => '350.2649',
    eccentricity => '0.0012088',
    inclination => '98.944'
  },
  'AO-27' => {
    orbit => '42716',
    elset => '143',
    argperigee => '115.6225',
    epoch => '1340.39150897',
    bstar => '0.00025389',
    number => '93061',
    raan => '21.2779',
    mm1 => '5.96e-06',
    meanmotion => '14.28586034',
    mm2 => '0',
    id => '22825',
    meananomaly => '244.5934',
    eccentricity => '0.0009376',
    inclination => '98.3282'
  },
  'RS-15' => {
    orbit => '28605',
    elset => '586',
    argperigee => '196.9334',
    epoch => '1340.17823988',
    bstar => '0.00044822',
    number => '94085',
    raan => '32.031',
    mm1 => '-2.7e-07',
    meanmotion => '11.2754358',
    mm2 => '0',
    id => '23439',
    meananomaly => '162.6201',
    eccentricity => '0.0160354',
    inclination => '64.8203'
  },
  'NOAA-12' => {
    orbit => '54875',
    elset => '419',
    argperigee => '216.2813',
    epoch => '1340.92767586',
    bstar => '0.00055873',
    number => '91032',
    raan => '329.1329',
    mm1 => '1.249e-05',
    meanmotion => '14.24352405',
    mm2 => '0',
    id => '21263',
    meananomaly => '143.754',
    eccentricity => '0.0012253',
    inclination => '98.5869'
  },
  'TIUNGSAT-1' => {
    orbit => '6407',
    elset => '217',
    argperigee => '300.8879',
    epoch => '1338.3927079',
    bstar => '0.00089075',
    number => '57',
    raan => '302.9226',
    mm1 => '6.445e-05',
    meanmotion => '14.78110386',
    mm2 => '0',
    id => '26548',
    meananomaly => '58.7821',
    eccentricity => '0.0046692',
    inclination => '64.5637'
  },
  OCS => {
    elset => '405',
    orbit => '4779',
    epoch => '356.70018964',
    argperigee => '347.6221',
    bstar => '0.030241',
    number => '4',
    raan => '263.5965',
    meanmotion => '14.81378842',
    mm1 => '0.00237336',
    mm2 => '0',
    id => '26062',
    meananomaly => '12.499',
    eccentricity => '0.0022433',
    inclination => '100.2182'
  },
  'NOAA-14' => {
    orbit => '35752',
    elset => '987',
    argperigee => '24.9687',
    epoch => '1340.91837252',
    bstar => '0.00031888',
    number => '94089',
    raan => '337.7949',
    mm1 => '5.47e-06',
    meanmotion => '14.12889898',
    mm2 => '0',
    id => '23455',
    meananomaly => '335.1957',
    eccentricity => '0.0009786',
    inclination => '99.188'
  },
  'NOAA-15' => {
    orbit => '18536',
    elset => '453',
    argperigee => '150.1696',
    epoch => '1340.88567599',
    bstar => '0.00027994',
    number => '98030',
    raan => '4.2086',
    mm1 => '5.98e-06',
    meanmotion => '14.2378757',
    mm2 => '0',
    id => '25338',
    meananomaly => '210.0108',
    eccentricity => '0.0010933',
    inclination => '98.5835'
  },
  'RS-12/13' => {
    orbit => '54326',
    elset => '388',
    argperigee => '73.0938',
    epoch => '1338.94476571',
    bstar => '0.0001613',
    number => '91007',
    raan => '148.3251',
    mm1 => '1.68e-06',
    meanmotion => '13.74311368',
    mm2 => '0',
    id => '21089',
    meananomaly => '287.3576',
    eccentricity => '0.0030611',
    inclination => '82.9169'
  },
  'UO-36' => {
    orbit => '14154',
    elset => '433',
    argperigee => '225.985',
    epoch => '1340.88498922',
    bstar => '0.00035282',
    number => '99021',
    raan => '271.0209',
    mm1 => '2.238e-05',
    meanmotion => '14.74536764',
    mm2 => '0',
    id => '25693',
    meananomaly => '133.8524',
    eccentricity => '0.0033099',
    inclination => '64.5612'
  },
  HUBBLE => {
    orbit => '43682',
    elset => '787',
    argperigee => '325.4716',
    epoch => '1340.6999801',
    bstar => '0.00077524',
    number => '90037',
    raan => '4.1666',
    mm1 => '9.036e-05',
    meanmotion => '14.95822848',
    mm2 => '0',
    id => '20580',
    meananomaly => '34.5082',
    eccentricity => '0.0012225',
    inclination => '28.4625'
  },
  'NOAA-16' => {
    orbit => '6225',
    elset => '603',
    argperigee => '105.4346',
    epoch => '1340.85985025',
    bstar => '0.00042479',
    number => '55',
    raan => '283.8578',
    mm1 => '7.69e-06',
    meanmotion => '14.11397049',
    mm2 => '0',
    id => '26536',
    meananomaly => '254.8577',
    eccentricity => '0.0011451',
    inclination => '98.848'
  },
  MIR => {
    elset => '341',
    orbit => '84870',
    epoch => '356.86032407',
    argperigee => '138.854',
    bstar => '0.00042632',
    number => '86017',
    raan => '14.9528',
    meanmotion => '15.84741655',
    mm1 => '0.00102535',
    mm2 => '0',
    id => '16609',
    meananomaly => '231.2527',
    eccentricity => '0.0016068',
    inclination => '51.6493'
  },
  'WO-18' => {
    orbit => '61983',
    elset => '668',
